STARLINK-5669           
1 55459U 23015L   23047.08505435  .00012976  00000+0  10218-3 0  9994
2 55459  43.0003 305.8333 0001783 273.0202  87.0462 15.71370512  2326
STARLINK-5678           
1 55460U 23015M   23047.08495172  .00073530  00000+0  55862-3 0  9999
2 55460  43.0003 305.8335 0001918 301.3684  58.6996 15.71380555  2323
STARLINK-5646           
1 55461U 23015N   23047.08516029  .00066184  00000+0  50377-3 0  9998
2 55461  42.9999 305.8343 0001943 239.4314 120.6362 15.71372540  2326
STARLINK-5673           
1 55462U 23015P   23047.08453001  .00049891  00000+0  38128-3 0  9995
2 55462  42.9998 305.8302 0001868 286.2576  73.8086 15.71376611  2322
STARLINK-5677           
1 55463U 23015Q   23047.08473871  .00040747  00000+0  31247-3 0  9999
2 55463  43.0000 305.8316 0001930 281.4016  78.6634 15.71368881  2322
STARLINK-5676           
1 55464U 23015R   23047.08421509  .00072851  00000+0  55362-3 0  9996
2 55464  43.0002 305.8272 0001851 283.7754  76.2908 15.71377373  2326
STARLINK-5674           
1 55465U 23015S   23047.08442287  .00066618  00000+0  50687-3 0  9992
2 55465  43.0001 305.8280 0002031 259.8042 100.2597 15.71379601  2137
STARLINK-5628           
1 55466U 23015T   23047.08379576  .00077583  00000+0  58905-3 0  9997
2 55466  43.0001 305.8234 0001941 266.5848  93.4797 15.71376030  2324
STARLINK-5679           
1 55467U 23015U   23047.08464453  .00115555  00000+0  87150-3 0  9993
2 55467  43.0003 305.8304 0001625 273.6208  86.4474 15.71381642  2322
STARLINK-5672           
1 55468U 23015V   23047.08411002  .00090833  00000+0  68797-3 0  9993
2 55468  42.9997 305.8259 0002216 239.8220 120.2428 15.71375477  2322
STARLINK-5681           
1 55469U 23015W   23047.08431782  .00014286  00000+0  11212-3 0  9999
2 55469  43.0006 305.8276 0001957 273.5581  86.5063 15.71371607  2321
STARLINK-5708           
1 55470U 23015X   23047.08400351  .00084220  00000+0  63829-3 0  9995
2 55470  42.9999 305.8257 0001872 262.8182  97.2473 15.71389177  2320
STARLINK-5711           
1 55471U 23015Y   23047.08389703  .00070038  00000+0  53264-3 0  9997
2 55471  43.0002 305.8239 0001695 264.9745  95.0929 15.71373791  2326
STARLINK-5705           
1 55472U 23015Z   23047.08347946  .00055903  00000+0  42656-3 0  9998
2 55472  43.0005 305.8217 0002183 285.4685  74.5942 15.71372702  2328
STARLINK-5687           
1 55473U 23015AA  23047.08368838  .00073233  00000+0  55649-3 0  9994
2 55473  43.0001 305.8231 0002215 283.9779  76.0842 15.71376167  2329
STARLINK-5689           
1 55474U 23015AB  23047.08316358  .00063135  00000+0  48079-3 0  9994
2 55474  43.0001 305.8185 0001846 275.6976  84.3681 15.71377989  2320
STARLINK-5650           
1 55475U 23015AC  23047.08358525  .00034879  00000+0  26830-3 0  9991
2 55475  43.0003 305.8220 0001829 277.3682  82.6978 15.71355745  2323
STARLINK-5596           
1 55476U 23015AD  23047.01857307 -.00171654  00000+0 -76334-3 0  9996
2 55476  42.9808 305.2850 0016852 258.2979 101.6002 15.83498396  2320
STARLINK-5685           
1 55477U 23015AE  23047.08326841  .00042735  00000+0  32734-3 0  9999
2 55477  43.0005 305.8182 0001796 261.0978  98.9686 15.71378196  2326
STARLINK-5691           
1 55478U 23015AF  23047.08253230  .00047320  00000+0  36202-3 0  9990
2 55478  42.9999 305.8138 0001663 289.2649  70.8038 15.71370295  2320
STARLINK-5688           
1 55479U 23015AG  23047.08337279  .00062641  00000+0  47707-3 0  9992
2 55479  43.0000 305.8207 0002066 274.0077  86.0555 15.71377988  2327
STARLINK-5690           
1 55480U 23015AH  23047.08264139  .00040268  00000+0  30902-3 0  9998
2 55480  42.9999 305.8159 0001248 284.6166  75.4563 15.71356638  2136
STARLINK-5694           
1 55481U 23015AJ  23047.08295260  .00081179  00000+0  61591-3 0  9992
2 55481  43.0000 305.8173 0002113 287.1217  72.9419 15.71376434  2324
STARLINK-5693           
1 55482U 23015AK  23047.08190328  .00040182  00000+0  30838-3 0  9991
2 55482  42.9995 305.8097 0001851 284.5100  75.5562 15.71355549  2132
STARLINK-5692           
1 55483U 23015AL  23047.08242646  .00072474  00000+0  55077-3 0  9994
2 55483  43.0005 305.8131 0002257 262.8414  97.2198 15.71377767  2327
STARLINK-5696           
1 55484U 23015AM  23047.08211133  .00065479  00000+0  49858-3 0  9999
2 55484  43.0004 305.8106 0002430 269.3921  90.6668 15.71366698  2327
STARLINK-5695           
1 55485U 23015AN  23047.08274232  .00076764  00000+0  58290-3 0  9998
2 55485  43.0002 305.8167 0001959 280.5222  79.5425 15.71377175  2135
STARLINK-5704           
1 55486U 23015AP  23047.08221592  .00059020  00000+0  44994-3 0  9992
2 55486  43.0000 305.8119 0001807 279.9207  80.1457 15.71375814  2320
STARLINK-5701           
1 55487U 23015AQ  23047.08284817  .00049320  00000+0  37704-3 0  9995
2 55487  42.9999 305.8160 0001861 297.0644  63.0034 15.71372753  2328
STARLINK-5706           
1 55488U 23015AR  23047.08158621  .00007382  00000+0  59671-4 0  9999
2 55488  42.9997 305.8076 0001916 289.3059  70.7602 15.71361600  2323
STARLINK-5371           
1 55489U 23015AS  23047.01875918  .00075642  00000+0  57433-3 0  9995
2 55489  43.0001 306.1953 0001747 271.3868  88.6800 15.71384871  2313
STARLINK-5373           
1 55490U 23015AT  23046.76356421  .00082710  00000+0  62628-3 0  9997
2 55490  43.0000 307.7207 0001754 263.4663  96.6005 15.71417360  2277
STARLINK-5364           
1 55491U 23015AU  23046.76169337  .00445067  00000+0  31727-2 0  9999
2 55491  42.9866 307.6983 0001648 303.0122  57.0588 15.71701471  2275
STARLINK-5013           
1 55492U 23015AV  23046.95456640  .00059973  00000+0  45693-3 0  9992
2 55492  43.0000 306.5736 0001856 273.2079  86.8576 15.71384323  2115
STARLINK-5362           
1 55493U 23015AW  23046.76366787  .00087151  00000+0  65925-3 0  9993
2 55493  43.0009 307.7215 0001970 281.7466  78.3181 15.71421500  2275
STARLINK-5344           
1 55494U 23015AX  23047.01770863  .00071227  00000+0  54130-3 0  9990
2 55494  43.0004 306.1876 0002091 259.0094 101.0539 15.71383825  2310
STARLINK-5100           
1 55495U 23015AY  23047.01823076  .00104127  00000+0  78579-3 0  9995
2 55495  43.0006 306.1907 0002707 288.8954  71.1621 15.71407755  2124
STARLINK-5139           
1 55496U 23015AZ  23047.08095331  .00015023  00000+0  11771-3 0  9995
2 55496  43.0007 305.7996 0002057 273.2483  86.8150 15.71373608  2323
STARLINK-5363           
1 55497U 23015BA  23047.01760460  .00013109  00000+0  10326-3 0  9999
2 55497  43.0002 306.1856 0001960 275.4301  84.6344 15.71353904  2311
STARLINK-5365           
1 55498U 23015BB  23047.08084827  .00010747  00000+0  85237-4 0  9992
2 55498  42.9999 305.7993 0001871 245.6230 114.4442 15.71371474  2327
STARLINK-5366           
1 55499U 23015BC  23047.08064055  .00015940  00000+0  12470-3 0  9992
2 55499  42.9997 305.7980 0001788 291.1755  68.8922 15.71367343  2119
STARLINK-5141           
1 55500U 23015BD  23047.01749710  .00119513  00000+0  89982-3 0  9999
2 55500  43.0001 306.1872 0002084 288.0308  72.0332 15.71406857  2312
STARLINK-5367           
1 55501U 23015BE  23046.76293251  .00040057  00000+0  30691-3 0  9994
2 55501  43.0002 307.7148 0002003 261.7305  98.3336 15.71395999  2277
FALCON 9 DEB            
1 55502U 23015BF  23046.89417557  .00293348  00000+0  12154-2 0  9992
2 55502  42.9904 306.0882 0014809 250.3438 109.5837 15.84078126  2301
FALCON 9 DEB            
1 55503U 23015BG  23046.88985286  .00325385  00000+0  12850-2 0  9991
2 55503  42.9876 306.0504 0017421 246.3903 113.5140 15.84934963  2308
FALCON 9 DEB            
1 55504U 23015BH  23047.13253571  .00346182  00000+0  12721-2 0  9991
2 55504  42.9835 304.4162 0018773 262.6773  97.1966 15.86328249  2346
FALCON 9 DEB            
1 55505U 23015BJ  23046.87922764  .00294830  00000+0  11027-2 0  9999
2 55505  42.9820 305.9538 0020470 256.3204 103.5390 15.86034756  2306
ELEKTRO-L 4             
1 55506U 23016A   23046.93990929 -.00000072  00000+0  00000+0 0  9996
2 55506   0.5416 285.1208 0014859 236.2716 100.6450  1.01514256   101
BLOCK DM-SL R/B         
1 55507U 23016B   23046.06395427 -.00000029  00000+0  00000+0 0  9995
2 55507   0.4159 276.0205 0096439  29.3918  53.6673  1.03218260   102
AMAZONAS NEXUS          
1 55508U 23017A   23040.08992635 -.00000333  00000+0  00000+0 0  9995
2 55508  25.0543 351.1512 8150843 178.8279 187.3709  1.25612863    24
FALCON 9 R/B            
1 55509U 23017B   23046.46466141  .00000835  00000+0  37623-2 0  9992
2 55509  25.0357 349.9554 8154272 180.4611 177.7895  1.25150488   106
PROGRESS-MS 22          
1 55560U 23018A   23046.33235144  .00023566  00000+0  41842-3 0  9998
2 55560  51.6404 212.0968 0009312 352.6402  91.1572 15.50045791382890
EOS-7                   
1 55562U 23019A   23046.77127235  .00048216  00000+0  11331-2 0  9998
2 55562  37.1847  79.4132 0008390   9.5941 350.4977 15.40993317   859
AZAADISAT-2             
1 55563U 23019B   23046.76930605  .00117236  00000+0  26508-2 0  9992
2 55563  37.1854  79.3983 0008181  25.4121 334.7039 15.41835093   868
JANUS-1                 
1 55564U 23019C   23046.76713853  .00054105  00000+0  12203-2 0  9999
2 55564  37.1840  79.3779 0011792  30.1048 330.0387 15.42155377   866
SSLV R/B                
1 55565U 23019D   23046.81076279  .00117150  00000+0  20889-2 0  9999
2 55565  37.1847  78.7914 0040191  26.9812 333.3028 15.47896296   860
VTM R/B                 
1 55566U 23019E   23046.86695572  .00032207  00000+0  52682-3 0  9994
2 55566  37.9006  79.7272 0050380  55.2285 305.3217 15.50195234   872
2023-019F               
1 55567U 23019F   23046.55274064  .00048028  00000+0  86619-3 0  9995
2 55567  37.1845  80.4296 0040013  24.2993 335.9645 15.47867847   826
2023-019G               
1 55568U 23019G   23047.13126365  .00336765  00000+0  48386-2 0  9997
2 55568  37.1939  76.5689 0045395  31.3333  30.2712 15.52885020   917
